[
  {
    "COMMENT": "GENERATED VIA SPACETRACK.ORG API",
    "ORIGINATOR": "18 SPCS",
    "NORAD_CAT_ID": "54754",
    "OBJECT_NAME": "SWOT",
    "OBJECT_TYPE": "PAYLOAD",
    "CLASSIFICATION_TYPE": "U",
    "INTLDES": "22173A",
    "EPOCH": "2023-04-17 12:31:33",
    "EPOCH_MICROSECONDS": "869856",
    "MEAN_MOTION": "14.09852607",
    "ECCENTRICITY": "0.0001059",
    "INCLINATION": "77.6052",
    "RA_OF_ASC_NODE": "158.5823",
    "ARG_OF_PERICENTER": "212.7252",
    "MEAN_ANOMALY": "147.384",
    "EPHEMERIS_TYPE": "0",
    "ELEMENT_SET_NO": "999",
    "REV_AT_EPOCH": "1719",
    "BSTAR": "0.00016419",
    "MEAN_MOTION_DOT": "0.00000286",
    "MEAN_MOTION_DDOT": "0",
    "FILE": "3889164",
    "TLE_LINE0": "0 SWOT",
    "TLE_LINE1": "1 54754U 22173A   23107.52191979  .00000286  00000-0  16419-3 0  9996",
    "TLE_LINE2": "2 54754  77.6052 158.5823 0001059 212.7252 147.3840 14.09852607 17199",
    "OBJECT_ID": "2022-173A",
    "OBJECT_NUMBER": "54754",
    "SEMIMAJOR_AXIS": "7238.013",
    "PERIOD": "102.138",
    "APOGEE": "860.645",
    "PERIGEE": "859.112",
    "DECAYED": "0"
  },
  {
    "COMMENT": "GENERATED VIA SPACETRACK.ORG API",
    "ORIGINATOR": "18 SPCS",
    "NORAD_CAT_ID": "54754",
    "OBJECT_NAME": "SWOT",
    "OBJECT_TYPE": "PAYLOAD",
    "CLASSIFICATION_TYPE": "U",
    "INTLDES": "22173A",
    "EPOCH": "2023-04-17 12:31:33",
    "EPOCH_MICROSECONDS": "869856",
    "MEAN_MOTION": "14.09852607",
    "ECCENTRICITY": "0.0001059",
    "INCLINATION": "77.6052",
    "RA_OF_ASC_NODE": "158.5823",
    "ARG_OF_PERICENTER": "212.7252",
    "MEAN_ANOMALY": "147.384",
    "EPHEMERIS_TYPE": "0",
    "ELEMENT_SET_NO": "999",
    "REV_AT_EPOCH": "1719",
    "BSTAR": "0.00016419",
    "MEAN_MOTION_DOT": "0.00000286",
    "MEAN_MOTION_DDOT": "0",
    "FILE": "3889215",
    "TLE_LINE0": "0 SWOT",
    "TLE_LINE1": "1 54754U 22173A   23107.52191979  .00000286  00000-0  16419-3 0  9996",
    "TLE_LINE2": "2 54754  77.6052 158.5823 0001059 212.7252 147.3840 14.09852607 17199",
    "OBJECT_ID": "2022-173A",
    "OBJECT_NUMBER": "54754",
    "SEMIMAJOR_AXIS": "7238.013",
    "PERIOD": "102.138",
    "APOGEE": "860.645",
    "PERIGEE": "859.112",
    "DECAYED": "0"
  },
  {
    "COMMENT": "GENERATED VIA SPACETRACK.ORG API",
    "ORIGINATOR": "18 SPCS",
    "NORAD_CAT_ID": "54754",
    "OBJECT_NAME": "SWOT",
    "OBJECT_TYPE": "PAYLOAD",
    "CLASSIFICATION_TYPE": "U",
    "INTLDES": "22173A",
    "EPOCH": "2023-04-17 21:02:30",
    "EPOCH_MICROSECONDS": "248736",
    "MEAN_MOTION": "14.09852819",
    "ECCENTRICITY": "0.0001061",
    "INCLINATION": "77.6051",
    "RA_OF_ASC_NODE": "158.0954",
    "ARG_OF_PERICENTER": "212.5304",
    "MEAN_ANOMALY": "147.5787",
    "EPHEMERIS_TYPE": "0",
    "ELEMENT_SET_NO": "999",
    "REV_AT_EPOCH": "1724",
    "BSTAR": "0.00016616",
    "MEAN_MOTION_DOT": "0.00000289",
    "MEAN_MOTION_DDOT": "0",
    "FILE": "3889391",
    "TLE_LINE0": "0 SWOT",
    "TLE_LINE1": "1 54754U 22173A   23107.87673899  .00000289  00000-0  16616-3 0  9992",
    "TLE_LINE2": "2 54754  77.6051 158.0954 0001061 212.5304 147.5787 14.09852819 17240",
    "OBJECT_ID": "2022-173A",
    "OBJECT_NUMBER": "54754",
    "SEMIMAJOR_AXIS": "7238.012",
    "PERIOD": "102.138",
    "APOGEE": "860.645",
    "PERIGEE": "859.109",
    "DECAYED": "0"
  },
  {
    "COMMENT": "GENERATED VIA SPACETRACK.ORG API",
    "ORIGINATOR": "18 SPCS",
    "NORAD_CAT_ID": "54754",
    "OBJECT_NAME": "SWOT",
    "OBJECT_TYPE": "PAYLOAD",
    "CLASSIFICATION_TYPE": "U",
    "INTLDES": "22173A",
    "EPOCH": "2023-04-18 10:40:00",
    "EPOCH_MICROSECONDS": "448032",
    "MEAN_MOTION": "14.09853105",
    "ECCENTRICITY": "0.0001067",
    "INCLINATION": "77.6051",
    "RA_OF_ASC_NODE": "157.3165",
    "ARG_OF_PERICENTER": "212.4528",
    "MEAN_ANOMALY": "147.6563",
    "EPHEMERIS_TYPE": "0",
    "ELEMENT_SET_NO": "999",
    "REV_AT_EPOCH": "1732",
    "BSTAR": "0.00016575",
    "MEAN_MOTION_DOT": "0.00000289",
    "MEAN_MOTION_DDOT": "0",
    "FILE": "3889684",
    "TLE_LINE0": "0 SWOT",
    "TLE_LINE1": "1 54754U 22173A   23108.44444963  .00000289  00000-0  16575-3 0  9998",
    "TLE_LINE2": "2 54754  77.6051 157.3165 0001067 212.4528 147.6563 14.09853105 17320",
    "OBJECT_ID": "2022-173A",
    "OBJECT_NUMBER": "54754",
    "SEMIMAJOR_AXIS": "7238.011",
    "PERIOD": "102.138",
    "APOGEE": "860.649",
    "PERIGEE": "859.104",
    "DECAYED": "0"
  },
  {
    "COMMENT": "GENERATED VIA SPACETRACK.ORG API",
    "ORIGINATOR": "18 SPCS",
    "NORAD_CAT_ID": "54754",
    "OBJECT_NAME": "SWOT",
    "OBJECT_TYPE": "PAYLOAD",
    "CLASSIFICATION_TYPE": "U",
    "INTLDES": "22173A",
    "EPOCH": "2023-04-18 15:46:34",
    "EPOCH_MICROSECONDS": "270176",
    "MEAN_MOTION": "14.09853182",
    "ECCENTRICITY": "0.0001067",
    "INCLINATION": "77.605",
    "RA_OF_ASC_NODE": "157.0244",
    "ARG_OF_PERICENTER": "212.5741",
    "MEAN_ANOMALY": "147.535",
    "EPHEMERIS_TYPE": "0",
    "ELEMENT_SET_NO": "999",
    "REV_AT_EPOCH": "1735",
    "BSTAR": "0.00015507",
    "MEAN_MOTION_DOT": "0.0000027",
    "MEAN_MOTION_DDOT": "0",
    "FILE": "3889780",
    "TLE_LINE0": "0 SWOT",
    "TLE_LINE1": "1 54754U 22173A   23108.65734109  .00000270  00000-0  15507-3 0  9999",
    "TLE_LINE2": "2 54754  77.6050 157.0244 0001067 212.5741 147.5350 14.09853182 17353",
    "OBJECT_ID": "2022-173A",
    "OBJECT_NUMBER": "54754",
    "SEMIMAJOR_AXIS": "7238.011",
    "PERIOD": "102.138",
    "APOGEE": "860.648",
    "PERIGEE": "859.104",
    "DECAYED": "0"
  },
  {
    "COMMENT": "GENERATED VIA SPACETRACK.ORG API",
    "ORIGINATOR": "18 SPCS",
    "NORAD_CAT_ID": "54754",
    "OBJECT_NAME": "SWOT",
    "OBJECT_TYPE": "PAYLOAD",
    "CLASSIFICATION_TYPE": "U",
    "INTLDES": "22173A",
    "EPOCH": "2023-04-18 20:53:08",
    "EPOCH_MICROSECONDS": "88864",
    "MEAN_MOTION": "14.0985331",
    "ECCENTRICITY": "0.0001068",
    "INCLINATION": "77.605",
    "RA_OF_ASC_NODE": "156.7323",
    "ARG_OF_PERICENTER": "212.3741",
    "MEAN_ANOMALY": "147.7351",
    "EPHEMERIS_TYPE": "0",
    "ELEMENT_SET_NO": "999",
    "REV_AT_EPOCH": "1738",
    "BSTAR": "0.00015699",
    "MEAN_MOTION_DOT": "0.00000273",
    "MEAN_MOTION_DDOT": "0",
    "FILE": "3889987",
    "TLE_LINE0": "0 SWOT",
    "TLE_LINE1": "1 54754U 22173A   23108.87023251  .00000273  00000-0  15699-3 0  9997",
    "TLE_LINE2": "2 54754  77.6050 156.7323 0001068 212.3741 147.7351 14.09853310 17385",
    "OBJECT_ID": "2022-173A",
    "OBJECT_NUMBER": "54754",
    "SEMIMAJOR_AXIS": "7238.011",
    "PERIOD": "102.138",
    "APOGEE": "860.649",
    "PERIGEE": "859.103",
    "DECAYED": "0"
  },
  {
    "COMMENT": "GENERATED VIA SPACETRACK.ORG API",
    "ORIGINATOR": "18 SPCS",
    "NORAD_CAT_ID": "54754",
    "OBJECT_NAME": "SWOT",
    "OBJECT_TYPE": "PAYLOAD",
    "CLASSIFICATION_TYPE": "U",
    "INTLDES": "22173A",
    "EPOCH": "2023-04-19 12:12:49",
    "EPOCH_MICROSECONDS": "538016",
    "MEAN_MOTION": "14.0985369",
    "ECCENTRICITY": "0.0001075",
    "INCLINATION": "77.605",
    "RA_OF_ASC_NODE": "155.8559",
    "ARG_OF_PERICENTER": "212.3389",
    "MEAN_ANOMALY": "147.7702",
    "EPHEMERIS_TYPE": "0",
    "ELEMENT_SET_NO": "999",
    "REV_AT_EPOCH": "1747",
    "BSTAR": "0.0001633",
    "MEAN_MOTION_DOT": "0.00000284",
    "MEAN_MOTION_DDOT": "0",
    "FILE": "3890383",
    "TLE_LINE0": "0 SWOT",
    "TLE_LINE1": "1 54754U 22173A   23109.50890669  .00000284  00000-0  16330-3 0  9998",
    "TLE_LINE2": "2 54754  77.6050 155.8559 0001075 212.3389 147.7702 14.09853690 17473",
    "OBJECT_ID": "2022-173A",
    "OBJECT_NUMBER": "54754",
    "SEMIMAJOR_AXIS": "7238.009",
    "PERIOD": "102.138",
    "APOGEE": "860.653",
    "PERIGEE": "859.096",
    "DECAYED": "0"
  },
  {
    "COMMENT": "GENERATED VIA SPACETRACK.ORG API",
    "ORIGINATOR": "18 SPCS",
    "NORAD_CAT_ID": "54754",
    "OBJECT_NAME": "SWOT",
    "OBJECT_TYPE": "PAYLOAD",
    "CLASSIFICATION_TYPE": "U",
    "INTLDES": "22173A",
    "EPOCH": "2023-04-19 20:43:45",
    "EPOCH_MICROSECONDS": "887520",
    "MEAN_MOTION": "14.09853938",
    "ECCENTRICITY": "0.0001077",
    "INCLINATION": "77.6049",
    "RA_OF_ASC_NODE": "155.3691",
    "ARG_OF_PERICENTER": "211.9089",
    "MEAN_ANOMALY": "148.2003",
    "EPHEMERIS_TYPE": "0",
    "ELEMENT_SET_NO": "999",
    "REV_AT_EPOCH": "1752",
    "BSTAR": "0.00016678",
    "MEAN_MOTION_DOT": "0.00000291",
    "MEAN_MOTION_DDOT": "0",
    "FILE": "3890520",
    "TLE_LINE0": "0 SWOT",
    "TLE_LINE1": "1 54754U 22173A   23109.86372555  .00000291  00000-0  16678-3 0  9999",
    "TLE_LINE2": "2 54754  77.6049 155.3691 0001077 211.9089 148.2003 14.09853938 17528",
    "OBJECT_ID": "2022-173A",
    "OBJECT_NUMBER": "54754",
    "SEMIMAJOR_AXIS": "7238.009",
    "PERIOD": "102.138",
    "APOGEE": "860.653",
    "PERIGEE": "859.094",
    "DECAYED": "0"
  },
  {
    "COMMENT": "GENERATED VIA SPACETRACK.ORG API",
    "ORIGINATOR": "18 SPCS",
    "NORAD_CAT_ID": "54754",
    "OBJECT_NAME": "SWOT",
    "OBJECT_TYPE": "PAYLOAD",
    "CLASSIFICATION_TYPE": "U",
    "INTLDES": "22173A",
    "EPOCH": "2023-04-20 05:14:42",
    "EPOCH_MICROSECONDS": "237888",
    "MEAN_MOTION": "14.09854143",
    "ECCENTRICITY": "0.0001076",
    "INCLINATION": "77.6049",
    "RA_OF_ASC_NODE": "154.8823",
    "ARG_OF_PERICENTER": "211.8665",
    "MEAN_ANOMALY": "148.2426",
    "EPHEMERIS_TYPE": "0",
    "ELEMENT_SET_NO": "999",
    "REV_AT_EPOCH": "1757",
    "BSTAR": "0.00017012",
    "MEAN_MOTION_DOT": "0.00000296",
    "MEAN_MOTION_DDOT": "0",
    "FILE": "3890766",
    "TLE_LINE0": "0 SWOT",
    "TLE_LINE1": "1 54754U 22173A   23110.21854442  .00000296  00000-0  17012-3 0  9998",
    "TLE_LINE2": "2 54754  77.6049 154.8823 0001076 211.8665 148.2426 14.09854143 17570",
    "OBJECT_ID": "2022-173A",
    "OBJECT_NUMBER": "54754",
    "SEMIMAJOR_AXIS": "7238.008",
    "PERIOD": "102.138",
    "APOGEE": "860.652",
    "PERIGEE": "859.094",
    "DECAYED": "0"
  }
]